25417,ORBCOMM FM16,1998,100.11,-1.0,-,44.99,Inactive,0,LEO,Eastern Range Airspace,ORBCOMM,Unknown,Unknown,Unknown,1 25417U 98046E   25062.21952104  .00002359  00000+0  81271-3 0  9995,2 25417  44.9939 315.9054 0004146 109.3778 250.7518 14.38383631388991,14.38383631,0.0004146,LEO
25418,ORBCOMM FM15,1998,100.14,45.0,-,45.0,Inactive,1,LEO,Eastern Range Airspace,ORBCOMM,Commercial,Communications,Pegasus,1 25418U 98046F   25061.96166750  .00002147  00000+0  74884-3 0  9998,2 25418  44.9976 321.9623 0003602 107.9441 252.1800 14.38052864388956,14.38052864,0.0003602,LEO
25419,ORBCOMM FM14,1998,100.11,45.0,-,45.0,Inactive,1,LEO,Eastern Range Airspace,ORBCOMM,Commercial,Communications,Pegasus,1 25419U 98046G   25062.07450263  .00002045  00000+0  71097-3 0  9997,2 25419  44.9964 319.9568 0002771  93.5844 266.5321 14.38373165388937,14.38373165,0.0002771,LEO
25475,ORBCOMM FM21,1998,100.21,45.0,-,45.01,Inactive,1,LEO,Eastern Range Airspace,ORBCOMM,Commercial,Communications,Pegasus,1 25475U 98053A   25062.43135165  .00001850  00000+0  66610-3 0  9996,2 25475  45.0084  50.1963 0002087 328.0061  32.0660 14.36969643382031,14.36969643,0.0002087,LEO
25476,ORBCOMM FM22,1998,100.15,-1.0,-,45.01,Inactive,0,LEO,Eastern Range Airspace,ORBCOMM,Unknown,Unknown,Unknown,1 25476U 98053B   25062.33303934  .00002197  00000+0  76799-3 0  9991,2 25476  45.0076  46.3290 0003125   5.9277 354.1607 14.37886689382035,14.37886689,0.0003125,LEO
25477,ORBCOMM FM23,1998,100.2,45.0,-,45.01,Inactive,1,LEO,Eastern Range Airspace,ORBCOMM,Commercial,Communications,Pegasus,1 25477U 98053C   25062.44421708  .00002226  00000+0  78957-3 0  9995,2 25477  45.0083  52.3930 0002559 349.3798  10.6996 14.37109271382181,14.37109271,0.0002559,LEO
25420,ORBCOMM FM13,1998,100.19,45.0,-,45.0,Inactive,1,LEO,Eastern Range Airspace,ORBCOMM,Commercial,Communications,Pegasus,1 25420U 98046H   25062.09980592  .00001835  00000+0  65754-3 0  9993,2 25420  44.9983 326.8181 0004778  91.1691 268.9704 14.37244396387977,14.37244396,0.0004778,LEO
25416,ORBCOMM FM20,1998,100.22,45.0,+,44.99,Active,1,LEO,Eastern Range Airspace,ORBCOMM,Commercial,Communications,Pegasus,1 25416U 98046D   25061.96315396  .00001714  00000+0  62221-3 0  9999,2 25416  44.9950 324.2041 0001043  34.2332 325.8583 14.36835569388982,14.36835569,0.0001043,LEO
